NORAD_CAT_ID,OBJECT_NAME,OBJECT_TYPE,EPOCH,MEAN_MOTION,ECCENTRICITY,INCLINATION,RA_OF_ASC_NODE,ARG_OF_PERICENTER,MEAN_ANOMALY,BSTAR,MEAN_MOTION_DOT,MEAN_MOTION_DDOT,TLE_LINE0,TLE_LINE1,TLE_LINE2,SEMIMAJOR_AXIS,PERIOD,APOGEE,PERIGEE,DECAYED
54190.0,STARLINK-5281,PAYLOAD,2022-11-24 22:00:00,15.73168792,0.000325,53.2167,5.9457,4.8109,284.362,0.00054151,0.00075979,0.0,0 STARLINK-5281,1 54190U 22141AK  22328.91667824  .00075979  00000-0  54151-3 0  9995,2 54190  53.2167   5.9457 0003250   4.8109 284.3620 15.73168792  4645,6727.984,91.535,352.036,347.663,0.0
54190.0,STARLINK-5281,PAYLOAD,2022-11-25 14:00:01,15.73267506,0.0003596,53.2166,2.6483,5.9459,101.1211,-0.00012846,-0.00018672,0.0,0 STARLINK-5281,1 54190U 22141AK  22329.58334491 -.00018672  00000-0 -12846-3 0  9994,2 54190  53.2166   2.6483 0003596   5.9459 101.1211 15.73267506  4757,6727.703,91.529,351.987,347.148,0.0
54190.0,STARLINK-5281,PAYLOAD,2022-11-25 22:00:00,15.73238298,0.0003375,53.2166,0.9965,6.062,190.0179,0.00016499,0.00022638,0.0,0 STARLINK-5281,1 54190U 22141AK  22329.91667824  .00022638  00000-0  16499-3 0  9993,2 54190  53.2166   0.9965 0003375   6.0620 190.0179 15.73238298  1304,6727.786,91.531,351.922,347.38,0.0
54190.0,STARLINK-5281,PAYLOAD,2022-11-26 14:00:01,15.73272242,0.0003695,53.2159,357.6993,7.0978,6.9418,-0.00055511,-0.00078085,0.0,0 STARLINK-5281,1 54190U 22141AK  22330.58334491 -.00078085  00000-0 -55511-3 0  9996,2 54190  53.2159 357.6993 0003695   7.0978   6.9418 15.73272242  1309,6727.689,91.529,352.04,347.0680000000001,0.0
54190.0,STARLINK-5281,PAYLOAD,2022-11-26 22:00:00,15.73191743,0.0003408,53.2162,356.0475,5.898,97.1388,-0.00040435,-0.00056988,0.0,0 STARLINK-5281,1 54190U 22141AK  22330.91667824 -.00056988  00000-0 -40435-3 0  9999,2 54190  53.2162 356.0475 0003408   5.8980  97.1388 15.73191743  4961,6727.919,91.534,352.077,347.491,0.0
54190.0,STARLINK-5281,PAYLOAD,2022-11-27 14:00:01,15.73153825,0.0003795,53.2163,352.7504,9.4385,271.3627,0.00048892,0.0006843999999999,0.0,0 STARLINK-5281,1 54190U 22141AK  22331.58334491  .00068440  00000-0  48892-3 0  9993,2 54190  53.2163 352.7504 0003795   9.4385 271.3627 15.73153825  5069,6728.026999999999,91.536,352.445,347.339,0.0
54190.0,STARLINK-5281,PAYLOAD,2022-11-27 22:00:00,15.73196931,0.0003555,53.2164,351.099,10.024,359.6829,-8.6838e-06,-1.843e-05,0.0,0 STARLINK-5281,1 54190U 22141AK  22331.91667824 -.00001843  00000-0 -86838-5 0  9999,2 54190  53.2164 351.0990 0003555  10.0240 359.6829 15.73196931  1305,6727.904,91.533,352.161,347.37699999999984,0.0
54190.0,STARLINK-5281,PAYLOAD,2022-11-28 06:00:00,15.73186254,0.0003689,53.2162,349.4509,9.8523,88.7833,0.00012481,0.00016923,0.0,0 STARLINK-5281,1 54190U 22141AK  22332.25001157  .00016923  00000-0  12481-3 0  9992,2 54190  53.2162 349.4509 0003689   9.8523  88.7833 15.73186254  5179,6727.934,91.534,352.281,347.31699999999995,0.0
54190.0,STARLINK-5281,PAYLOAD,2022-11-28 22:00:01,15.73175135,0.0003543999999999,53.216,346.1503,7.9473,268.6522,0.00052448,0.00073573,0.0,0 STARLINK-5281,1 54190U 22141AK  22332.91668981  .00073573  00000-0  52448-3 0  9990,2 54190  53.2160 346.1503 0003544   7.9473 268.6522 15.73175135  1309,6727.965999999999,91.535,352.215,347.44699999999995,0.0
54190.0,STARLINK-5281,PAYLOAD,2022-11-29 14:00:01,15.73213557,0.000385,53.2161,342.8532,3.5629,90.8968,-0.00037776,-0.0005336,0.0,0 STARLINK-5281,1 54190U 22141AK  22333.58335648 -.00053360  00000-0 -37776-3 0  9996,2 54190  53.2161 342.8532 0003850   3.5629  90.8968 15.73213557  5382,6727.857,91.532,352.31199999999984,347.131,0.0
54190.0,STARLINK-5281,PAYLOAD,2022-11-29 22:00:00,15.731478200000002,0.0003604,53.2161,341.2019,2.8941,180.4296,0.00069299,0.00097577,0.0,0 STARLINK-5281,1 54190U 22141AK  22333.91667824  .00097577  00000-0  69299-3 0  9998,2 54190  53.2161 341.2019 0003604   2.8941 180.4296 15.73147820  1308,6728.044,91.536,352.334,347.4840000000001,0.0
54190.0,STARLINK-5281,PAYLOAD,2022-11-30 06:00:00,15.73240144,0.0003766,53.2159,339.5543,3.3117,268.9154,-0.00058348,-0.00081897,0.0,0 STARLINK-5281,1 54190U 22141AK  22334.25001157 -.00081897  00000-0 -58348-3 0  9990,2 54190  53.2159 339.5543 0003766   3.3117 268.9154 15.73240144  5488,6727.781,91.531,352.17900000000014,347.112,0.0
54190.0,STARLINK-5281,PAYLOAD,2022-11-30 14:00:01,15.73205861,0.0003945,53.2157,337.9023,2.5587,358.6705,-5.8573e-05,-8.842e-05,0.0,0 STARLINK-5281,1 54190U 22141AK  22334.58335648 -.00008842  00000-0 -58573-4 0  9991,2 54190  53.2157 337.9023 0003945   2.5587 358.6705 15.73205861  5545,6727.878000000002,91.533,352.398,347.089,0.0
54190.0,STARLINK-5281,PAYLOAD,2022-11-30 22:00:00,15.73099469,0.0003628999999999,53.2165,336.2477,5.8214,84.3019,0.00089279,0.00126057,0.0,0 STARLINK-5281,1 54190U 22141AK  22334.91667824  .00126057  00000-0  89279-3 0  9995,2 54190  53.2165 336.2477 0003629   5.8214  84.3019 15.73099469  1307,6728.182,91.539,352.48800000000006,347.605,0.0
54190.0,STARLINK-5281,PAYLOAD,2022-12-01 14:00:01,15.73230636,0.0003913,53.2155,332.9562,6.598,261.3778,-0.00023199,-0.00033113,0.0,0 STARLINK-5281,1 54190U 22141AK  22335.58334491 -.00033113  00000-0 -23199-3 0  9991,2 54190  53.2155 332.9562 0003913   6.5980 261.3778 15.73230636  1300,6727.808000000001,91.531,352.305,347.04,0.0
54190.0,STARLINK-5281,PAYLOAD,2022-12-01 20:00:01,15.73191038,0.0003724,53.2156,331.7176,5.3604,239.4034,0.00055893,0.00078549,0.0,0 STARLINK-5281,1 54190U 22141AK  22335.83335648  .00078549  00000-0  55893-3 0  9990,2 54190  53.2156 331.7176 0003724   5.3604 239.4034 15.73191038  5733,6727.920999999999,91.534,352.291,347.28,0.0
54190.0,STARLINK-5281,PAYLOAD,2022-12-01 22:00:00,15.73221181,0.0003704,53.2155,331.305,5.7594,351.1679,0.00018586,0.00025572,0.0,0 STARLINK-5281,1 54190U 22141AK  22335.91667824  .00025572  00000-0  18586-3 0  9999,2 54190  53.2155 331.3050 0003704   5.7594 351.1679 15.73221181  1308,6727.835,91.532,352.19199999999995,347.208,0.0
54190.0,STARLINK-5281,PAYLOAD,2022-12-02 06:00:00,15.73222002,0.0003877,53.2156,329.6565,3.9603,81.9369,-0.00063894,-0.00089476,0.0,0 STARLINK-5281,1 54190U 22141AK  22336.25001157 -.00089476  00000-0 -63894-3 0  9995,2 54190  53.2156 329.6565 0003877   3.9603  81.9369 15.73222002  5808,6727.831999999999,91.532,352.306,347.089,0.0
54190.0,STARLINK-5281,PAYLOAD,2022-12-02 14:00:01,15.73227019,0.0003892,53.2145,328.0075,4.7651,170.074,-0.00029063,-0.00041279,0.0,0 STARLINK-5281,1 54190U 22141AK  22336.58334491 -.00041279  00000-0 -29063-3 0  9990,2 54190  53.2145 328.0075 0003892   4.7651 170.0740 15.73227019  5855,6727.818,91.532,352.302,347.065,0.0
54190.0,STARLINK-5281,PAYLOAD,2022-12-02 22:00:00,15.73151838,0.0003694,53.2146,326.3562,8.2424,255.5485,0.00058667,0.00082377,0.0,0 STARLINK-5281,1 54190U 22141AK  22336.91667824  .00082377  00000-0  58667-3 0  9990,2 54190  53.2146 326.3562 0003694   8.2424 255.5485 15.73151838  1301,6728.031999999997,91.536,352.3830000000001,347.412,0.0
54190.0,STARLINK-5281,PAYLOAD,2022-12-03 06:00:00,15.73235337,0.0003911,53.2147,324.7086,8.5702,344.1228,-0.00031498,-0.00044683,0.0,0 STARLINK-5281,1 54190U 22141AK  22337.25001157 -.00044683  00000-0 -31498-3 0  9992,2 54190  53.2147 324.7086 0003911   8.5702 344.1228 15.73235337  5962,6727.794,91.531,352.291,347.028,0.0
54190.0,STARLINK-5281,PAYLOAD,2022-12-03 14:00:01,15.73213347,0.0003922,53.2147,323.0586,5.9768,75.6714,-0.00022727,-0.0003243,0.0,0 STARLINK-5281,1 54190U 22141AK  22337.58334491 -.00032430  00000-0 -22727-3 0  9990,2 54190  53.2147 323.0586 0003922   5.9768  75.6714 15.73213347  1301,6727.857,91.532,352.361,347.083,0.0
54190.0,STARLINK-5281,PAYLOAD,2022-12-03 22:00:00,15.73161836,0.0003696,53.2147,321.4074,5.0067,165.5823,0.00035576,0.00049534,0.0,0 STARLINK-5281,1 54190U 22141AK  22337.91667824  .00049534  00000-0  35576-3 0  9993,2 54190  53.2147 321.4074 0003696   5.0067 165.5823 15.73161836  6069,6728.004,91.535,352.356,347.38199999999995,0.0
54190.0,STARLINK-5281,PAYLOAD,2022-12-04 06:00:00,15.7319276,0.0003934,53.2143,319.7599,4.4958,254.9944,-0.00037848,-0.00053415,0.0,0 STARLINK-5281,1 54190U 22141AK  22338.25001157 -.00053415  00000-0 -37848-3 0  9991,2 54190  53.2143 319.7599 0003934   4.4958 254.9944 15.73192760  6117,6727.916,91.534,352.42800000000005,347.134,0.0
54190.0,STARLINK-5281,PAYLOAD,2022-12-04 14:00:01,15.73179387,0.0003882,53.2138,318.1097,3.225,345.16,0.00016319,0.00022328,0.0,0 STARLINK-5281,1 54190U 22141AK  22338.58334491  .00022328  00000-0  16319-3 0  9994,2 54190  53.2138 318.1097 0003882   3.2250 345.1600 15.73179387  6179,6727.954000000002,91.534,352.431,347.207,0.0
54190.0,STARLINK-5281,PAYLOAD,2022-12-04 22:00:00,15.73207677,0.0003628,53.2142,316.4587,4.4501,72.8435,0.00029436,0.00040916,0.0,0 STARLINK-5281,1 54190U 22141AK  22338.91667824  .00040916  00000-0  29436-3 0  9997,2 54190  53.2142 316.4587 0003628   4.4501  72.8435 15.73207677  1303,6727.873000000001,91.533,352.17900000000014,347.297,0.0
54190.0,STARLINK-5281,PAYLOAD,2022-12-05 06:00:00,15.73213325,0.0003885,53.2142,314.8109,3.6958,162.58,0.00016548,0.00022685,0.0,0 STARLINK-5281,1 54190U 22141AK  22339.25001157  .00022685  00000-0  16548-3 0  9999,2 54190  53.2142 314.8109 0003885   3.6958 162.5800 15.73213325  6278,6727.857,91.532,352.336,347.108,0.0
54190.0,STARLINK-5281,PAYLOAD,2022-12-05 14:00:01,15.73250525,0.0003863,53.2142,313.1604,4.9757,250.3124,-0.00043359,-0.00061195,0.0,0 STARLINK-5281,1 54190U 22141AK  22339.58335648 -.00061195  00000-0 -43359-3 0  9991,2 54190  53.2142 313.1604 0003863   4.9757 250.3124 15.73250525  1304,6727.751,91.53,352.215,347.017,0.0
54190.0,STARLINK-5281,PAYLOAD,2022-12-05 15:58:08,15.73230214,0.0003705,53.2153,312.7528,6.396,353.7107,0.00011185,0.00015127,0.0,0 STARLINK-5281,1 54190U 22141AK  22339.66537975  .00015127  00000-0  11185-3 0  9991,2 54190  53.2153 312.7528 0003705   6.3960 353.7107 15.73230214  6119,6727.809,91.531,352.167,347.181,0.0
